UNKNOWN                 
1 82912U          25300.24597513  .00005118  00000+0  20860-2 0  9990
2 82912  65.8360 281.3866 0780258 289.8508  62.0106 13.27181696573156
UNKNOWN                 
1 82961U          25300.39464204  .00009447  00000+0  15161-1 0  9996
2 82961  99.9271  97.2074 0393174 117.8900 246.2617 13.22207878549586
UNKNOWN                 
1 82965U          25294.66988842  .00001649  00000+0  22787-2 0  9990
2 82965 100.1179  12.5134 0002032 188.2085 171.9021 13.59849585517377
UNKNOWN                 
1 83903U          25300.46895159 -.00000246  00000+0  00000+0 0  9991
2 83903   6.3014 291.0251 0125138 249.9255 319.7164  0.99113880 43204
UNKNOWN                 
1 83934U          25293.39896398 -.00000171  00000+0  00000+0 0  9991
2 83934   5.9069 297.8514 0235087 270.2084 276.6429  1.02659294 44734
UNKNOWN                 
1 83970U          25300.23685391  .00002829  00000+0  30589-2 0  9991
2 83970  18.2795 272.1024 5075059  47.0133 345.7148  5.31409266193739
UNKNOWN                 
1 84006U          25299.94385169 -.00000062  00000+0  00000+0 0  9997
2 84006  22.5379 187.0039 6133716  44.3903 350.9608  2.16233174 83210
UNKNOWN                 
1 84188U          25299.26446944  .00057995  00000+0  78569-1 0  9995
2 84188  65.0426 296.6798 3867585  23.8218 350.1642  7.23933404 37777
UNKNOWN                 
1 84232U          25282.41764387  .00006743  00000+0  51980-2 0  9992
2 84232  20.4796 311.0066 6571341 358.0863   0.3965  3.16155657102652
UNKNOWN                 
1 84236U          25299.76086301  .00000270  00000+0  23016-2 0  9993
2 84236   9.4419 355.9427 6893893  52.7215 352.0432  2.62475380112746
UNKNOWN                 
1 84292U          25299.45767895  .00004147  00000+0  22981-2 0  9992
2 84292  23.8056 225.8380 4568187 126.0510 285.4181  6.21085600225122
UNKNOWN                 
1 84406U          25300.19824096  .00000778  00000+0  42928-2 0  9999
2 84406 101.7191  83.7450 0044767 135.4950  45.4018 12.67246146 43396
UNKNOWN                 
1 84407U          25295.42673257  .00000034  00000+0  38484-1 0  9996
2 84407  19.5518 337.6073 7202635  34.2808 356.0828  2.05750908 74811
UNKNOWN                 
1 84575U          25300.00978441 -.00000196  00000+0 -41867-2 0  9997
2 84575  18.1356 173.7575 7103751 354.2725   0.8828  2.19885080 64436
UNKNOWN                 
1 84932U          25300.52289764  .00001048  00000+0  87639-2 0  9996
2 84932   2.2106 272.2318 6568205   2.4572 106.9110  2.99852356130399
UNKNOWN                 
1 85004U          25300.40552333  .00001923  00000+0  60533-3 0  9996
2 85004  98.4158 272.1544 0046211 302.9340 209.5051 14.40919771624225
UNKNOWN                 
1 85010U          25298.57938106  .00001382  00000+0  14906-2 0  9994
2 85010  99.2507 161.9637 0027660  18.6065  10.8836 13.74894221597309
UNKNOWN                 
1 85015U          25300.24928621  .00000757  00000+0  15601-3 0  9997
2 85015  74.0463 127.1659 0014507  42.3989 317.8295 14.62200411635817
UNKNOWN                 
1 85023U          25298.51666370  .00035700  00000+0  58499-2 0  9999
2 85023  99.8531 303.8722 0004543  88.9706  63.4699 14.70609739621736
UNKNOWN                 
1 85027U          25300.29412843  .00000146  00000+0  21229-3 0  9994
2 85027  66.0414 215.2427 0181344 214.9091 143.9974 13.74214328598234
UNKNOWN                 
1 85047U          25300.16129325  .00014816  00000+0  25529-1 0  9996
2 85047 102.2548 255.8104 0102706 101.2850 259.9832 13.42269710570405
UNKNOWN                 
1 85061U          25299.87328135  .00004129  00000+0  16332-1 0  9995
2 85061 102.3966 279.4219 0281616 286.4413 101.0955 12.76616965549801
UNKNOWN                 
1 85100U          25299.80401241  .00000509  00000+0  16760-3 0  9997
2 85100  74.0447 309.5556 0012684 196.1523 344.8511 14.40650173626587
UNKNOWN                 
1 85106U          25299.54174251  .00000753  00000+0  87064-3 0  9998
2 85106 100.0555  38.0849 0010524 133.3976 247.6402 13.72808573596597
UNKNOWN                 
1 85151U          25300.43697022  .00020650  00000+0  30156-2 0  9992
2 85151  98.4052 162.5500 0009331 304.2949  55.7375 14.75732287472692
UNKNOWN                 
1 85210U          25299.17609557  .00000825  00000+0  81860-3 0  9993
2 85210  99.8538  78.8796 0217376  76.2132  99.4861 13.71425155595631
UNKNOWN                 
1 85217U          25299.72055746  .00003317  00000+0  89044-3 0  9997
2 85217  98.0304  37.2074 0208411 270.2901  87.4409 14.36674079621108
UNKNOWN                 
1 85237U          25298.14048420  .00004033  00000+0  88830-3 0  9993
2 85237  65.5355 342.3389 0511430  50.0172 314.4657 13.99954247601546
UNKNOWN                 
1 85238U          25300.64867079  .00000096  00000+0  11429-3 0  9997
2 85238  99.0548 231.1616 0062927 326.1745 153.6258 13.88329647604446
UNKNOWN                 
1 85246U          25298.96542004  .00001921  00000+0  69604-3 0  9991
2 85246  97.9885 306.9574 0225260  84.9337 277.7511 14.21232896616289
UNKNOWN                 
1 85373U          25298.89303535  .00002856  00000+0  19709-2 0  9996
2 85373 100.4208 328.3781 0047397   3.6943 120.3811 13.99676002605437
UNKNOWN                 
1 87014U          25298.39124183  .00003465  00000+0  53349-2 0  9990
2 87014 100.4969 259.9882 0057697 355.8142 156.0011 13.51532430584385
UNKNOWN                 
1 87042U          25300.38586206  .00000955  00000+0  59238-3 0  9997
2 87042  98.7199 345.2612 0043029 224.4515 135.3199 14.06990901547444
UNKNOWN                 
1 87051U          25300.45466084  .00002804  00000+0  96325-3 0  9999
2 87051  65.7306   4.6490 0719215 162.5368 200.1870 13.45668498582354
UNKNOWN                 
1 87054U          25299.92511741  .00002804  00000+0  15951-2 0  9997
2 87054 100.0915 173.6158 0013309 104.8435 255.4207 14.10791672609721
UNKNOWN                 
1 87071U          25300.03213024  .00011997  00000+0  42314-2 0  9990
2 87071  61.2213  50.5786 0485619 214.0521 142.8454 13.84844657596018
UNKNOWN                 
1 87113U          25279.10108060  .01762118  14827-2  71219-2 0  9993
2 87113  65.5997 277.2947 0031772 239.2111 120.5927 15.85548661625569
UNKNOWN                 
1 87129U          25300.07894078  .00000224  00000+0  19500-2 0  9994
2 87129 102.2638  30.4872 0034515 172.9175 187.2383 12.42791182540878
UNKNOWN                 
1 87159U          25300.62321296  .00001315  00000+0  15332-2 0  9996
2 87159  90.3475  67.7364 0104663  34.9602 325.8371 13.65910476550390
UNKNOWN                 
1 87163U          25299.55722715  .00001956  00000+0  61902-3 0  9997
2 87163  65.6021 352.6321 0642383  85.8559 281.5605 13.63559263571086
UNKNOWN                 
1 87164U          25298.75120487  .00005041  00000+0  10554-2 0  9992
2 87164  65.2020 107.0029 0097351  78.2129 282.9871 14.57743560628775
UNKNOWN                 
1 87204U          25300.57443901  .00002793  00000+0  11077-2 0  9992
2 87204  98.5402 162.3280 0046531  98.5385 262.1074 14.29001359618843
UNKNOWN                 
1 87211U          25299.26874488  .00004809  00000+0  13414-2 0  9998
2 87211  99.0861 295.7046 0052991 301.4501  72.4478 14.45961593700913
UNKNOWN                 
1 87214U          25296.94270461  .00002489  00000+0  22393-2 0  9992
2 87214 100.3267 290.7312 0074862  19.8485 340.5553 13.83918086593356
UNKNOWN                 
1 87237U          25295.12734809  .00000469  00000+0  38700-3 0  9993
2 87237  99.2632 350.7070 0104033  64.3273 326.4791 13.91689484604586
UNKNOWN                 
1 87239U          25297.78966846  .00012657  00000+0  32207-2 0  9994
2 87239  82.8725 124.3901 0019638 197.8455 162.2056 14.50477928620770
UNKNOWN                 
1 87245U          25300.64409266  .00005543  00000+0  11439-2 0  9999
2 87245  65.6418 171.0276 0437431 144.1884 252.5284 14.14935752607680
UNKNOWN                 
1 87271U          25300.46169665  .00004628  00000+0  88098-3 0  9993
2 87271  65.7603   0.6070 0421703  98.1928 266.7202 14.20859707605796
UNKNOWN                 
1 87280U          25300.40086691  .00000652  00000+0  11215-2 0  9993
2 87280  64.6174 349.9795 0131212 269.2981  89.3022 13.48493227527605
UNKNOWN                 
1 87293U          25300.03334697  .00014800  00000+0  30137-2 0  9992
2 87293  65.8974 269.2723 0425515  25.0936 337.0178 14.16864113607375
UNKNOWN                 
1 87300U          25297.88608279  .00002606  00000+0  18256-2 0  9998
2 87300 100.0831 275.4625 0030517  59.4669 300.9497 13.99188227606283
UNKNOWN                 
1 87304U          25297.07468536  .00002892  00000+0  43221-3 0  9991
2 87304  74.0208  58.1538 0017724  37.2578 322.9821 14.75143949639156
UNKNOWN                 
1 87320U          25300.45152512  .00002900  00000+0  18486-2 0  9994
2 87320  66.5940 194.6590 0414419  84.8428 279.9785 13.69826182587400
UNKNOWN                 
1 87334U          25300.35069350  .00025726  00000+0  15817-1 0  9990
2 87334  90.0099 271.7017 0079502  29.8594 330.7087 14.03867808380137
UNKNOWN                 
1 87335U          25300.38042559  .00026546  00000+0  15980-1 0  9998
2 87335  89.9950 268.0925 0094066   9.3921 350.8991 14.04399270380464
UNKNOWN                 
1 87405U          25300.41862494  .00003440  00000+0  24629-2 0  9997
2 87405  82.7482  96.6504 0058773 103.8760 256.8955 13.96036303604691
UNKNOWN                 
1 87426U          25299.21441433  .00004777  00000+0  18796-2 0  9993
2 87426  65.7832 103.3241 0065105 312.7525 227.2804 14.28930538615792
UNKNOWN                 
1 87448U          25300.53266306  .00001781  00000+0  14535-2 0  9998
2 87448 100.4547 141.3551 0064778 323.9187  35.7604 13.90398717602819
UNKNOWN                 
1 87456U          25292.22469093  .00026373  00000+0  40464-2 0  9995
2 87456  65.7807 235.5596 0509737  33.2102 329.9900 14.12295207603792
